{
  "norad_id": 68636,
  "name": "QIANFAN-109",
  "history": [
    {
      "epoch": "2026-04-16T21:03:56.174400Z",
      "apogee_km": 831.5615774867147,
      "perigee_km": 811.0575536679498,
      "latitude_deg": 3.999081496976953e-05,
      "longitude_deg": 166.6381086439302,
      "height_km": 834.6024505899976,
      "semi_major_axis_km": 7199.446565577332,
      "eccentricity": 0.001424,
      "inclination_deg": 88.9912,
      "raan_deg": 327.6413,
      "arg_perigee_deg": 183.3207,
      "mean_anomaly_deg": 176.7892,
      "mean_motion_rev_day": 14.21196381
    },
    {
      "epoch": "2026-04-17T20:44:05.696448Z",
      "apogee_km": 834.6448511376684,
      "perigee_km": 814.4411896268957,
      "latitude_deg": -3.761013885002549e-05,
      "longitude_deg": 170.51306922568008,
      "height_km": 837.6975447505637,
      "semi_major_axis_km": 7202.680020382282,
      "eccentricity": 0.00140251,
      "inclination_deg": 88.9909,
      "raan_deg": 327.528,
      "arg_perigee_deg": 178.7633,
      "mean_anomaly_deg": 181.3594,
      "mean_motion_rev_day": 14.20239475
    },
    {
      "epoch": "2026-04-20T13:02:29.187168Z",
      "apogee_km": 839.0401828089016,
      "perigee_km": 818.3033113200981,
      "latitude_deg": 4.302465889666732e-05,
      "longitude_deg": -77.03208481814328,
      "height_km": 841.9465263566578,
      "semi_major_axis_km": 7206.8087470645,
      "eccentricity": 0.0014387,
      "inclination_deg": 88.9903,
      "raan_deg": 327.2217,
      "arg_perigee_deg": 170.4584,
      "mean_anomaly_deg": 189.6882,
      "mean_motion_rev_day": 14.19019183
    },
    {
      "epoch": "2026-04-21T14:25:38.013024Z",
      "apogee_km": 839.1430946711653,
      "perigee_km": 818.1972303340672,
      "latitude_deg": 4.6698915002366395e-05,
      "longitude_deg": -98.98251888002355,
      "height_km": 841.9263625190417,
      "semi_major_axis_km": 7206.807162502616,
      "eccentricity": 0.0014532,
      "inclination_deg": 88.9902,
      "raan_deg": 327.1006,
      "arg_perigee_deg": 167.0866,
      "mean_anomaly_deg": 193.0699,
      "mean_motion_rev_day": 14.19019651
    },
    {
      "epoch": "2026-04-22T14:07:14.240064Z",
      "apogee_km": 839.2337666461144,
      "perigee_km": 818.1048519085762,
      "latitude_deg": -4.330293784528113e-06,
      "longitude_deg": -95.46952146298274,
      "height_km": 841.8700327327243,
      "semi_major_axis_km": 7206.8063092773455,
      "eccentricity": 0.0014659,
      "inclination_deg": 88.99,
      "raan_deg": 326.9876,
      "arg_perigee_deg": 163.9802,
      "mean_anomaly_deg": 196.1854,
      "mean_motion_rev_day": 14.19019903
    },
    {
      "epoch": "2026-04-22T20:53:24.590400Z",
      "apogee_km": 839.2601775202329,
      "perigee_km": 818.0779331623735,
      "latitude_deg": -4.1789003723939616e-05,
      "longitude_deg": 162.6771355934854,
      "height_km": 841.8481177395186,
      "semi_major_axis_km": 7206.806055341302,
      "eccentricity": 0.0014696,
      "inclination_deg": 88.99,
      "raan_deg": 326.9554,
      "arg_perigee_deg": 163.0868,
      "mean_anomaly_deg": 197.0814,
      "mean_motion_rev_day": 14.19019978
    },
    {
      "epoch": "2026-04-24T13:30:26.667360Z",
      "apogee_km": 839.4115561741601,
      "perigee_km": 817.9251866398481,
      "latitude_deg": -3.304174574826439e-05,
      "longitude_deg": -88.44341177384007,
      "height_km": 841.66256395552,
      "semi_major_axis_km": 7206.805371407004,
      "eccentricity": 0.0014907,
      "inclination_deg": 88.9898,
      "raan_deg": 326.7616,
      "arg_perigee_deg": 157.8616,
      "mean_anomaly_deg": 202.322,
      "mean_motion_rev_day": 14.1902018
    },
    {
      "epoch": "2026-04-25T16:35:08.033280Z",
      "apogee_km": 839.5161651689159,
      "perigee_km": 817.8193587525566,
      "latitude_deg": -4.055025531400553e-06,
      "longitude_deg": -135.85713010043966,
      "height_km": 841.4949213959648,
      "semi_major_axis_km": 7206.804761960736,
      "eccentricity": 0.0015053,
      "inclination_deg": 88.9897,
      "raan_deg": 326.6323,
      "arg_perigee_deg": 154.4343,
      "mean_anomaly_deg": 205.7594,
      "mean_motion_rev_day": 14.1902036
    },
    {
      "epoch": "2026-04-26T19:39:49.382784Z",
      "apogee_km": 839.6250151702861,
      "perigee_km": 817.7088361601809,
      "latitude_deg": 9.033850532718848e-06,
      "longitude_deg": 176.72932075277197,
      "height_km": 841.2915118180669,
      "semi_major_axis_km": 7206.803925665234,
      "eccentricity": 0.00152052,
      "inclination_deg": 88.9896,
      "raan_deg": 326.5031,
      "arg_perigee_deg": 151.0187,
      "mean_anomaly_deg": 209.185,
      "mean_motion_rev_day": 14.19020607
    },
    {
      "epoch": "2026-04-27T15:58:20.380224Z",
      "apogee_km": 839.7035863630008,
      "perigee_km": 817.6291476498591,
      "latitude_deg": -2.4546156253745547e-05,
      "longitude_deg": -128.83088018171134,
      "height_km": 841.1118928411147,
      "semi_major_axis_km": 7206.80336700643,
      "eccentricity": 0.0015315,
      "inclination_deg": 88.9895,
      "raan_deg": 326.4061,
      "arg_perigee_deg": 148.4777,
      "mean_anomaly_deg": 211.7333,
      "mean_motion_rev_day": 14.19020772
    },
    {
      "epoch": "2026-04-28T20:44:34.274112Z",
      "apogee_km": 839.7965355601482,
      "perigee_km": 817.5347222394767,
      "latitude_deg": 6.785015862720026e-06,
      "longitude_deg": 158.2923665343281,
      "height_km": 840.8044109200821,
      "semi_major_axis_km": 7206.802628899812,
      "eccentricity": 0.0015445,
      "inclination_deg": 88.9893,
      "raan_deg": 326.2688,
      "arg_perigee_deg": 144.8776,
      "mean_anomaly_deg": 215.3435,
      "mean_motion_rev_day": 14.1902099
    },
    {
      "epoch": "2026-04-29T18:45:03.138912Z",
      "apogee_km": 857.737022051534,
      "perigee_km": 835.3073451501268,
      "latitude_deg": -6.39481030728017e-05,
      "longitude_deg": -172.8374415955458,
      "height_km": 858.7728834005779,
      "semi_major_axis_km": 7224.65918360083,
      "eccentricity": 0.0015523,
      "inclination_deg": 88.9883,
      "raan_deg": 326.1631,
      "arg_perigee_deg": 145.3299,
      "mean_anomaly_deg": 214.8902,
      "mean_motion_rev_day": 14.13763338
    },
    {
      "epoch": "2026-04-30T13:25:20.978976Z",
      "apogee_km": 858.5224829454864,
      "perigee_km": 841.1969747863941,
      "latitude_deg": -1.843250293925785e-05,
      "longitude_deg": -93.76519087955597,
      "height_km": 859.5757797333727,
      "semi_major_axis_km": 7227.99672886594,
      "eccentricity": 0.0011985,
      "inclination_deg": 88.9895,
      "raan_deg": 326.0765,
      "arg_perigee_deg": 140.5332,
      "mean_anomaly_deg": 219.6729,
      "mean_motion_rev_day": 14.12784238
    },
    {
      "epoch": "2026-05-01T20:00:33.394176Z",
      "apogee_km": 864.5758674849085,
      "perigee_km": 854.137519830294,
      "latitude_deg": 1.0519974821668962e-05,
      "longitude_deg": 166.02902380188414,
      "height_km": 866.6762597038721,
      "semi_major_axis_km": 7237.4936936576005,
      "eccentricity": 0.00072113,
      "inclination_deg": 88.9862,
      "raan_deg": 325.9286,
      "arg_perigee_deg": 145.2324,
      "mean_anomaly_deg": 214.9333,
      "mean_motion_rev_day": 14.10004389
    },
    {
      "epoch": "2026-05-04T19:34:31.423008Z",
      "apogee_km": 879.1547128560678,
      "perigee_km": 858.651387146605,
      "latitude_deg": 4.653000883125198e-05,
      "longitude_deg": 169.26371318222957,
      "height_km": 878.0335436843108,
      "semi_major_axis_km": 7247.040050001337,
      "eccentricity": 0.0014146,
      "inclination_deg": 88.9883,
      "raan_deg": 325.5942,
      "arg_perigee_deg": 126.6599,
      "mean_anomaly_deg": 233.5887,
      "mean_motion_rev_day": 14.07219258
    },
    {
      "epoch": "2026-05-05T16:01:43.224096Z",
      "apogee_km": 898.8122148737802,
      "perigee_km": 877.47260550194,
      "latitude_deg": 2.681673635423601e-06,
      "longitude_deg": -138.47154830509947,
      "height_km": 899.3462824704698,
      "semi_major_axis_km": 7266.27941018786,
      "eccentricity": 0.0014684,
      "inclination_deg": 88.9878,
      "raan_deg": 325.4981,
      "arg_perigee_deg": 140.1885,
      "mean_anomaly_deg": 220.0375,
      "mean_motion_rev_day": 14.01633992
    },
    {
      "epoch": "2026-05-06T17:42:20.214144Z",
      "apogee_km": 891.3112419609242,
      "perigee_km": 871.0127900523667,
      "latitude_deg": 1.913698968342056e-05,
      "longitude_deg": -164.79969183518813,
      "height_km": 889.2983476164435,
      "semi_major_axis_km": 7259.299016006645,
      "eccentricity": 0.0013981,
      "inclination_deg": 88.9889,
      "raan_deg": 325.3786,
      "arg_perigee_deg": 120.3902,
      "mean_anomaly_deg": 239.8663,
      "mean_motion_rev_day": 14.03656152
    },
    {
      "epoch": "2026-05-07T14:13:12.971136Z",
      "apogee_km": 912.74253491334,
      "perigee_km": 886.0848666962929,
      "latitude_deg": -9.044740282587735e-05,
      "longitude_deg": -113.4576245418226,
      "height_km": 908.3888517108082,
      "semi_major_axis_km": 7277.550700804816,
      "eccentricity": 0.0018315,
      "inclination_deg": 88.9877,
      "raan_deg": 325.283,
      "arg_perigee_deg": 116.7338,
      "mean_anomaly_deg": 243.5716,
      "mean_motion_rev_day": 13.98379029
    },
    {
      "epoch": "2026-05-08T12:30:40.930848Z",
      "apogee_km": 915.1069752330395,
      "perigee_km": 893.4999743443414,
      "latitude_deg": 1.0099413528473e-05,
      "longitude_deg": -88.84328739662963,
      "height_km": 908.973120009751,
      "semi_major_axis_km": 7282.44047478869,
      "eccentricity": 0.0014835,
      "inclination_deg": 88.9879,
      "raan_deg": 325.1793,
      "arg_perigee_deg": 98.9835,
      "mean_anomaly_deg": 261.3022,
      "mean_motion_rev_day": 13.96970859
    },
    {
      "epoch": "2026-05-09T02:15:24.959232Z",
      "apogee_km": 919.3340879402595,
      "perigee_km": 893.8278135905257,
      "latitude_deg": -5.1518018937953674e-05,
      "longitude_deg": 64.34524815448657,
      "height_km": 911.3995091936538,
      "semi_major_axis_km": 7284.717950765392,
      "eccentricity": 0.00175067,
      "inclination_deg": 88.9876,
      "raan_deg": 325.1158,
      "arg_perigee_deg": 98.3272,
      "mean_anomaly_deg": 261.989,
      "mean_motion_rev_day": 13.96315792
    },
    {
      "epoch": "2026-05-10T19:29:13.046784Z",
      "apogee_km": 928.0321149407337,
      "perigee_km": 908.1265775049687,
      "latitude_deg": -8.460600614171205e-05,
      "longitude_deg": 164.01172323649132,
      "height_km": 924.4535678740107,
      "semi_major_axis_km": 7296.216346222851,
      "eccentricity": 0.0013641,
      "inclination_deg": 88.9876,
      "raan_deg": 324.9259,
      "arg_perigee_deg": 109.9171,
      "mean_anomaly_deg": 250.3474,
      "mean_motion_rev_day": 13.93016329
    }
  ]
}